{"fetched_at":"2026-07-10T18:08:25.780Z","source":"https://celestrak.org/NORAD/elements/gp.php?NAME=PLEIADES&FORMAT=JSON","constellation":"pleiades","records":[{"OBJECT_NAME":"PLEIADES 1A","OBJECT_ID":"2011-076F","EPOCH":"2026-07-10T07:38:01.382784","CLASSIFICATION_TYPE":"U","MEAN_MOTION":14.5854493,"ECCENTRICITY":0.00017437,"INCLINATION":98.1968,"RA_OF_ASC_NODE":266.1096,"ARG_OF_PERICENTER":82.8785,"MEAN_ANOMALY":4.5104,"EPHEMERIS_TYPE":0,"NORAD_CAT_ID":38012,"ELEMENT_SET_NO":999,"REV_AT_EPOCH":77536,"BSTAR":0.00001588271,"MEAN_MOTION_DOT":2.8e-7,"MEAN_MOTION_DDOT":0},{"OBJECT_NAME":"PLEIADES 1B","OBJECT_ID":"2012-068A","EPOCH":"2026-07-10T06:24:08.741376","CLASSIFICATION_TYPE":"U","MEAN_MOTION":14.58532771,"ECCENTRICITY":0.00016292,"INCLINATION":98.1938,"RA_OF_ASC_NODE":266.0003,"ARG_OF_PERICENTER":81.1516,"MEAN_ANOMALY":278.9868,"EPHEMERIS_TYPE":0,"NORAD_CAT_ID":39019,"ELEMENT_SET_NO":999,"REV_AT_EPOCH":72421,"BSTAR":0.000033704477,"MEAN_MOTION_DOT":0.00000111,"MEAN_MOTION_DDOT":0}]}
