PLEIADES 1A             
1 38012U 11076F   26191.31807156  .00000028  00000+0  15883-4 0  9997
2 38012  98.1968 266.1096 0001743  82.8785   4.5104 14.58544930775365
PLEIADES 1B             
1 39019U 12068A   26191.26676784  .00000111  00000+0  33704-4 0  9997
2 39019  98.1938 266.0003 0001629  81.1516 278.9868 14.58532771724216
